current_name,latitude_old,longitude_old,latitude,longitude,observed_on,locality,recordedBy,x
Acmispon glaber,NA,NA,37.6823655,-119.7330376,6/26/1944,"Merced R canyon below Arch Rock, Yosemite National Park",C.W. Sharsmith,added
Adenostoma fasciculatum,37.74487,-119.571942,37.6985775,-119.7230631,6/28/1944,"Merced R canyon, Yosemite National Park",C.W. Sharsmith,moved
Agoseris grandiflora,37.83821,-119.835458,37.6999723,-119.7527129,6/26/1959,"Foresta, Yosemite National Park","Smith, Gladys L.",added
Agoseris parviflora,NA,NA,37.8721955,-119.3568137,7/11/1942,TUOLUMNE MEADOWS CAMPGROUND,"SHARSMITH, CARL W.",added
Anelsonia eurycarpa,NA,NA,38.0287096,-119.3077868,8/5/1939,"northwest slope of Excelsior Mountain, Virginia Canyon region, Sierra Nevada",C. W. Sharsmith,added
Arabis eschscholtziana,NA,NA,37.7264395,-119.6126295,1/1/1907,Yosemite,Alice King,added
Arnica chamissonis,NA,NA,37.8706233,-119.3294802,7/21/1972,2 mi. E of Tuolumne Meadows.,J. R. Shevock,added
Balsamorhiza deltoidea,NA,NA,37.7435081,-119.553787,5/12/1943,MIRROR LAKE ROAD. OPPOSITE IRON SPRING,"Beatty, Edward",added
Balsamorhiza macrolepis,NA,NA,37.7196005,-119.7721043,5/28/1960,Top of grade on Old Coulterville Road. Between Foresta and Little Nelly Falls,"Smith, Gladys L.",added
Boechera inyoensis,NA,NA,37.87934,-119.2230777,7/17/1937,"west ridge of Mount Gibbs, Sierra Nevada",C. W. Sharsmith,added
Boechera perennans,NA,NA,37.6708421,-119.6218627,7/5/1936,Glacier Point Rd. Yosemite Valley watershed.,Lyman Benson,added
Boechera pratincola,NA,NA,37.8631262,-119.2310526,8/16/1944,Mono Pass Trail.,J. T. Howell,added
Boechera tularensis,NA,NA,37.7322691,-119.7122308,6/19/1939,Yosemite National Park. 8 miles west of Glacier Point.,"Wiggins, Ira L.",added
Bromus grandis,37.703242,-119.722048,37.67847,-119.7591278,6/26/1944,MERCED CANYON. ADJACENT TO AND EAST OF PARK BOUNDARY,"SHARSMITH, CARL W.",moved
Bromus marginatus,NA,NA,37.6615629,-119.6622122,7/16/1959,"Badger Pass, Yosemite National Park",L. S. Rose,added
Bromus rubens,NA,NA,37.9511778,-119.7891903,5/27/1967,Yosemite National Park. North side of Hetch Hetchy Reservoir near dam.,"Thomas, John H.",added
Calycadenia multiglandulosa,NA,NA,37.7264417,-119.6126043,7/23/1943,YOSEMITE VALLEY,"SHARSMITH, CARL W.",added
Carex davyi,NA,NA,37.8747874,-119.3649106,8/11/1944,Tuolumne Meadows.,"Howell, John Thomas",added
Carex hassei,NA,NA,37.8413384,-119.496682,8/13/1948,"c. 1 mi E of Snow Flat on branch of Snow Creek on S base of Mt Hoffmann, Yosemite National Park",C.W. Sharsmith,added
Carex nudata,NA,NA,37.7441644,-119.5772571,5/4/1936,MEADOW NEAR AHWAHNEE & CAMP 7 INTERSECTION. YOSEMITE VALLEY,"WILLIAMS, H.",added
Carex stipata,NA,NA,37.8371439,-119.8437541,7/20/1923,"Acherson Meadows, Mather","Munz, Philip Alexander",added
Castilleja arachnoidea,NA,NA,38.0653357,-119.3343437,8/3/1960,Virginia Pass.,Clare B. Hardham,added
Centaurea benedicta,NA,NA,37.7408339,-119.571183,8/14/1944,"by Stoneman Meadow, Yosemite Valley",C.W. Sharsmith,added
Cicuta douglasii,NA,NA,37.9285816,-119.8073714,7/7/1940,"Tuolumne River drainage sw of Hetch Hetchy ( Yosemite National Park, Poison Meadow); Sierra Nevada, Yosemite National Park, Poison Meadow",H. L. Mason,added
Cirsium tioganum,NA,NA,37.8622744,-119.3042933,8/1/1935,LYELL FORK,"Schreiber, Beryl O.",added
Collinsia bartsiifolia,NA,NA,37.5320409,-119.6484111,7/16/1923,Wawona Meadow,"Howell, John Thomas",added
Cordylanthus pilosus,NA,NA,37.7763295,-119.5691583,8/7/1927,"Trail from Porcupine Flat to Yosemite Point, Sierra Nevada.",F. W. Peirson,added
Cryptantha glomeriflora,NA,NA,37.8785294,-119.3675448,8/9/1944,"Near Parsons Lodge, Tuolumne Meadows","Howell, John Thomas",added
Delphinium depauperatum,NA,NA,37.8273203,-119.7717634,6/20/1981,"Aspen Valley, Yosemite","Botti, Stephen J.",added
Delphinium hesperium,NA,NA,37.7264479,-119.612612,1896-07-01,Yosemite,W. L. Jepson,added
Delphinium nudicaule,NA,NA,37.8059275,-119.5651902,7/1/1901,Porcupine Flat Yosemite National Park,Herbert M. Evans,added
Descurainia pinnata,NA,NA,37.7252622,-119.6333188,5/28/1921,Yosemite National Park. Yosemite Valley. (El Capitan).,"Zeile, E. M.",added
Digitaria ischaemum,37.711612,-119.579716,37.7264354,-119.6125774,8/1/1931,Yosemite,unknown,moved
Elodea nuttallii,NA,NA,37.7398002,-119.5954691,5/11/1985,"Merced R, Yosemite Valley","Larned, Scott",added
Elymus saundersii,NA,NA,37.8778068,-119.3378327,9/11/1959,"Tuolumne Meadows c. 0.5 mi E of Tuolumne Meadows District Ranger Station, Yosemite National Park",C.W. Sharsmith,added
Epipactis gigantea,NA,NA,37.7362727,-119.612049,8/6/1944,SUMMIT OF TALUS. ROCKY POINT. YOSEMITE VALLEY,"SHARSMITH, CARL W.",added
Eriocoma thurberiana,37.8125,-119.87361,37.8099258,-119.8728869,6/6/1976,"along CA Hwy 120 at the west entrance to Yosemite National Park, near Big Oak Flat entrance station",June Latting,moved
Eriogonum hirtiflorum,NA,NA,37.94483,-119.7888701,7/21/1923,"Hetch Hetchy Railroad, Tuolumne Canyon.",P. A. Munz,added
Erythranthe floribunda,37.6864,-119.7308,37.6788663,-119.7590372,6/28/1944,"MERCED CANYON BELOW ARCH ROCK, JUST WITHIN PARK BOUNDARY","SHARSMITH, CARL W.",moved
Festuca pratensis,NA,NA,37.8695999,-119.648854,8/28/1964,"In the parking lot edge opposite White Wolf Lodge, Yosemite National Park Elev given as: ca 7800 ft","Frenkel, R. E.",added
Galium bolanderi,NA,NA,37.5452086,-119.6479902,7/14/1959,"Wawona, Yosemite National Park.",L. S. Rose,added
Garrya flavescens,NA,NA,37.7269894,-119.6125952,1948-05,Yosemite National Park,J. Miller; S. Ball,added
Gayophytum decipiens,NA,NA,38.023811,-119.3539916,7/22/1941,[three locations:] Virginia Canyon; Trail Benson Lake - Seavey Pass; Upper Matterhorn Canyon.,Hans Leschke,added
Githopsis specularioides,NA,NA,37.830905,-119.8451991,6/26/1943,"BIG OAK FLAT/OLD TIOGA ROAD JUNCTION, SOUTH OF ACKERSON CREEK","Sharsmith, Carl W.",added
Gratiola neglecta,37.9366,-119.72222,37.9460715,-119.7867397,1889-06-28,near Hetch-Hetchy; near Hetch-Hetchy,"Chesnut, Drew",moved
Helianthella californica,NA,NA,37.545151,-119.648078,6/5/1924,Wawona,"Howell, John Thomas",added
Hornungia procumbens,NA,NA,37.8785007,-119.36755,8/9/1944,Tuolumne Meadows. Near Parson Lodge.,"Howell, John Thomas",added
Juncus dubius,NA,NA,37.8505336,-119.5749728,8/13/1989,"Yosemite Creek, Yosemite National Park",C.W. Sharsmith,added
Juncus orthophyllus,NA,NA,37.8769962,-119.3442064,8/31/1969,"Dana Fork Tuolumne River by old District Ranger Station, Tuolumne Meadows, Yosemite National Park",C.W. Sharsmith,added
Juncus saximontanus,NA,NA,37.9226533,-119.4510834,7/28/1939,"Spring, Tuolumne Canyon, two miles below Glen Aulin",C. W. Sharsmith,added
Lactuca pulchella,NA,NA,37.7197728,-119.6598569,8/28/1944,"by Black Springs on N side Merced R opposite Bridal Veil Meadow, Yosemite Valley",C.W. Sharsmith,added
Lathyrus lanszwertii,NA,NA,37.7048902,-119.7533021,7/8/1944,by Big Meadow (Myers Ranch) on Coulterville Rd,C.W. Sharsmith,added
Leptosiphon montanus,37.814831,-119.875128,37.8315954,-119.845274,6/26/1943,Big Oak Flat-old Tioga Rd S of Ackerson Cr,C.W. Sharsmith,moved
Limnanthes montana,NA,NA,37.5808213,-119.7019613,5/14/1981,Yosemite Nat'l Pk: Along South Fork of Merced River about .3 km. below confluence of Alder Creek below El Portal,"Botti, Steve",added
Lomatium macrocarpum,37.5802,-119.6772,37.568218,-119.6678326,7/1/1911,"Yosemite Park, Alder Ck. trail",Willis L. Jepson,moved
Lupinus adsurgens,NA,NA,37.8557592,-119.3917264,7/31/1987,ALONG THE BUDD LAKE TRAIL,"BOTTI, STEVE",added
Lupinus albicaulis,NA,NA,37.5363824,-119.6581396,6/28/1967,WAWONA GOLF COURSE AREA,"HOOD, MARY V.",added
Lupinus caudatus,NA,NA,38.072118,-119.3490525,8/2/1960,Headwaters Return Creek,"Hardham, Clare B.",added
Lupinus fulcratus,NA,NA,37.8255299,-119.7727434,7/4/1932,Aspen Valley Ranger Station. Sierra Nevada mtn range. Tuolumne River drainage.,Lyman D. Benson,added
Lupinus lyallii,NA,NA,37.8567584,-119.6460236,7/13/1981,Tioga Pass. One mile from Siesta Lake.,"Knight, Walter; Knight, Irja; Wagnon, Keith; Vale, James",added
Lupinus meionanthus,NA,NA,37.9597375,-119.6078537,7/25/1914,Yosemite Nat. Park. Rancheria Mt.,Albert J. Perkins,added
Lupinus sellulus,NA,NA,37.8334407,-119.4637598,8/6/1967,TENAYA LAKE.,"HOOD, MARY V.",added
Luzula cascadensis,NA,NA,37.8665863,-119.6480999,7/4/1961,"Yosemite Research Reserve, near White Wolf","Major, J.",added
Luzula macrantha,NA,NA,37.5451819,-119.6477461,5/11/1934,"Wawona Yosemite Quad., Wawona","Augustine, W. B.",added
Marah fabacea,NA,NA,37.9514314,-119.8284319,7/8/1941,SWAMP LAKE RESEARCH RESERVE,"LINT, H.L.",added
Micranthes californica,NA,NA,37.9510715,-119.7893143,5/11/1941,"West end of Hetch Hetchy Valley, Yosemite Nat'l Park, 1.5 mi. N. of O'Shaughnessy Dam","Keck, David D.; Clausen, J.",added
Micranthes oregana,NA,NA,37.7666331,-119.7376829,7/26/1984,"Tamarack Cr c. 1.5 mi S of new Tioga Rd, Yosemite National Park",C.W. Sharsmith,added
Monardella sheltonii,NA,NA,37.5066306,-119.6324382,7/25/1923,At entrance of Yosemite Park on the Wawona Road,"Howell, John Thomas",added
Montia fontana,37.79512,-119.863655,37.8075949,-119.8723938,5/20/1967,"1/2 mi n of and below National Park Checking Station (Hodgdon Meadow (site of Hodgdon Ranch), below newest section of Big Oak Flat road approach to Yosemite); Yosemite National Park, Hodgdon Meadow","Rimo Bacigalupi, Paul Hutchison",moved
Myriopteris cooperae,NA,NA,37.7243802,-119.7013647,4/12/1965,Yosemite Natâ€™l Park on Crane Flat Rd. 1 mi. N of power house,"W.R. Supernaugh, Jr.",added
Nemacladus capillaris,NA,NA,37.8314621,-119.8447446,7/26/1943,SOUTH OF ACKERSON CREEK NEAR BIG OAK FLAT/OLD TIOGA ROADS,"SHARSMITH, CARL W.",added
Neottia convallarioides,NA,NA,37.733832,-119.5745493,8/24/1980,LEDGE TRAIL,"BOTTI, STEPHEN J.",added
Oxalis stricta,NA,NA,37.7462725,-119.5790752,6/29/1982,"Ahwahnee Meadow, Yosemite Valley; Yosemite National Park","Botti, Steve",added
Perideridia howellii,NA,NA,37.655038,-119.6337514,1896-07-27,Westfall's,J. W. Congdon,added
Persicaria hydropiperoides,NA,NA,37.7264663,-119.6125823,8/6/1912,Yosemite Valley,"Chandler, H. P.",added
Persicaria maculosa,NA,NA,37.7402719,-119.5923481,10/3/1953,"Yosemite National Park. Old Village, Yosemite Valley","Rose, Lewis S.",added
Phacelia mutabilis,NA,NA,37.877381,-119.3333391,8/3/1965,Tuolumne Meadows Lodge area.,Eugene Field,added
Phacelia tanacetifolia,NA,NA,37.7447919,-119.58834,5/22/1948,Yosemite National Park.,Cale Burgess Spry,added
Plectritis ciliosa,NA,NA,37.5452826,-119.6478921,5/18/1924,Near Wawona,"Howell, John Thomas",added
Polygonum parryi,NA,NA,37.8980919,-119.8565726,7/21/1923,"In Tuolumne River, near Mather",P. A. Munz,added
Polygonum sawatchense,NA,NA,37.8785191,-119.3675706,8/9/1944,"Near Parsons Lodge, Tuolumne Meadows","Howell, John Thomas",added
Polypodium californicum,NA,NA,37.6869959,-119.7294911,4/12/1965,"Yosemite Natâ€™l Park, near Arch Rock Ranger Station","W.R. Supernaugh, Jr.",added
Polypodium calirhiza,NA,NA,37.726013,-119.5481041,11/4/1983,"Yosemite National Park, beginning of Mist Trail","A. R. Smith, C. D. MacNeill, J. Prlain",added
Portulaca oleracea,NA,NA,37.7483396,-119.5878855,7/10/1944,IN FRONT OF PARK MUSEUM. YOSEMITE VALLEY,"SHARSMITH, CARL W.",added
Primula pauciflora,NA,NA,37.6665024,-119.6225225,1897-06-05,"Peregoy's Meadows, Glacier Point Turnpike, Mariposa County;Yosemite National Park;;;","Congdon, J.",added
Pseudognaphalium californicum,NA,NA,37.7593753,-119.803362,9/24/1960,Yosemite National Park. Crane Flat,"Rose, Lewis S.",added
Pseudognaphalium microcephalum,NA,NA,37.7307226,-119.751608,10/1/1954,"Yosemite National Park. Big Oak Flat Road, 4 mi. se. of Crane Flat forest slopes","Rose, Lewis S.",added
Pseudognaphalium stramineum,NA,NA,37.8936469,-119.8433913,10/20/1931,"Sierra Nevada Mountains, Yosemite National Park. Mather","Keck, David D.",added
Pseudognaphalium thermale,NA,NA,37.8122505,-119.4883042,10/6/1974,"Tioga Pass Road, 2.7 miles west of Tenaya Lake, Yosemite National Park.",Joseph M. Keefe,added
Psilocarphus oregonus,NA,NA,37.7545364,-119.5974409,7/22/1911,Yosemite Falls Yosemite National Park,H. M. Hall,added
Pterostegia drymarioides,NA,NA,37.7204416,-119.7768549,6/25/1959,Old Coulterville Road above Little Nelly Falls. Yosemite National Park,"Smith, Gladys L.",added
Ranunculus californicus,NA,NA,37.7267843,-119.6123008,4/4/1932,Yosemite National Park. [County unspecified],E. A. Purer,added
Rorippa sinuata,NA,NA,37.8795897,-119.3671406,1894-08-15,"Corral, Soda Springs Meadows, Tuloumne County;Yosemite National Park;;;","Congdon, J.",added
Rumex conglomeratus,NA,NA,37.7168474,-119.6601965,7/13/1911,lower end Yosemite Valley; Yosemite National Park,H. M. Hall,added
Rumex triangulivalvis,NA,NA,37.7583911,-119.8031554,8/18/1944,Crane Flat,"Howell, John Thomas",added
Sabulina californica,NA,NA,37.5447068,-119.6732836,7/3/1944,PUBLIC CAMPGROUND 1 1/2 MILE WEST OF WAWONA,"SHARSMITH, CARL W.",added
Sagina decumbens,NA,NA,37.7559717,-119.5993003,6/30/1944,"above base of upper Yosemite Falls, Yosemite National Park",C.W. Sharsmith,added
Salix laevigata,NA,NA,37.7528001,-119.7976,8/4/1931,"Yosemite National Park, arroyo of Bear Creek, at Bear Camp, on Big Oak Flat Road","Ball, C. R.; Bracelin, Mrs. H. P.; Kautz, Beryl",added
Salix melanopsis,37.814113999999996,-119.892819,37.8101301,-119.8725931,9/25/1966,California. Tuolumne County. 6 mi NW of Crane Flat.,Edward Laidlaw Smith,moved
Salix prolixa,NA,NA,37.7267679,-119.6130136,3/25/1956,Yosemite,Richard M. Straw,added
Sanicula bipinnatifida,NA,NA,37.7956731,-119.86301,6/1/1924,near Tuolumne Grove; Curtin Mdws.,Willis L. Jepson,added
Scirpus diffusus,NA,NA,37.839786,-119.836966,6/3/1946,"Ackerson Meadow, Ackerson Creek","Keck, David D.",added
Scrophularia desertorum,NA,NA,37.8740484,-119.3449295,7/23/1942,"S side Puppy Dome, Tuolumne Meadows, Yosemite National Park",C.W. Sharsmith,added
Scutellaria bolanderi,37.5322,-119.6477,37.53694,-119.65528,8/12/1938,Wawona,C. Epling,moved
Sedum radiatum,NA,NA,37.7153272,-119.6795384,5/28/1954,"on Pohono Trail about 1/4 mi above e end Wawona Tunnel (Yosemite National Park); , above e end Wawona Tunnel",C. H. Uhl,added
Sedum stenopetalum,NA,NA,37.7109224,-119.6921373,7/2/1940,POHONO TRAIL ABOVE TURTLEBACK DOME,"MORAN, REID V.",added
Senecio flaccidus,NA,NA,37.7110106,-119.7083595,9/21/1946,"1 mi S of Wawona Rd Tunnel on Wawona Rd, Yosemite National Park",C.W. Sharsmith,added
Setaria pumila,NA,NA,37.7500252,-119.5879475,9/7/1963,"Government Center, Yosemite Valley, Yosemite National Park",C.W. Sharsmith,added
Sidalcea asprella,NA,NA,37.7053909,-119.7496272,7/8/1944,BIG MEADOW. MYERS RANCH. COULTERVILLE ROAD,"SHARSMITH, CARL W.",added
Silene bridgesii,NA,NA,37.6994075,-119.7527546,7/14/1958,"Foresra [Foresta], Yosemite Park","Henninger, A.",added
Sisymbrium officinale,NA,NA,37.7486472,-119.5888256,6/9/1983,Yosemite National Park. Yosemite Village.,"Botti, Steve",added
Sorbus scopulina,NA,NA,37.7494264,-119.4392657,8/12/1963,"Sunrise Trail, 1 mile west of Lake Merced High Sierra Camp, Yosemite National Park","Gardner, Ivana",added
Sparganium emersum,NA,NA,37.885542,-119.3815202,8/8/1987,"Delaney Meadow, Yosemite National Park",C.W. Sharsmith,added
Stachys ajugoides,NA,NA,37.9602118,-119.8412529,7/10/1940,"MIGUEL MEADOW, EAST OF ROAD, NEAR CAMP","DUNN, DAVID",added
Stachys rigida,NA,NA,37.9608007,-119.8406125,7/8/1940,"Miguel Meadow Camp, e of the road Yosemite Nat. Park",D. Dunn,added
Stellaria nitens,NA,NA,37.7373432,-119.5691776,4/25/1972,"near Camp Curry, Yosemite Valley","Howell, John Thomas",added
Stephanomeria exigua,NA,NA,37.9338795,-119.5949771,8/4/1919,"Pate Valley, Yosemite National Park","Clemens, Mrs. Joseph",added
Symphyotrichum bracteolatum,NA,NA,37.5451017,-119.6478921,9/4/1929,Wawona,"Branson, Ivan",added
Toxicoscordion paniculatum,NA,NA,37.8541375,-119.6343815,6/23/1929,Road from Yosemite Valley to Tuolomme Meadows.,"Harvey, D.R.",added
Triodanis biflora,37.9366,-119.72222,37.9540551,-119.7768228,7/1/1902,"Hetch Hetchy Valley; Yosemite National Park, Hetch Hetchy Valley","H. M. Hall, E. B. Babcock",moved
Ranunculus uncinatus,37.532244,-119.647684,37.532244,-119.647684,7/2/1944,"by Wawona Meadows near Wawona, Yosemite National Park",C.W. Sharsmith,correct
Rigiopappus leptocladus,37.53694,-119.65528,37.53694,-119.65528,1888-05-27,Wawona;Yosemite National Park;;;,"Congdon, J. W.",correct
Agnorhiza elata,37.538097,-119.65631,37.538097,-119.65631,7/14/1959,Wawona Yosemite National Park,Lewis S. Rose,correct
Calycadenia mollis,37.5381,-119.6563,37.5381,-119.6563,7/14/1959,"Wawona, Yosemite National Park Yosemite National Park, Wawona",Lewis S. Rose,correct
Lepidium ruderale,37.5381,-119.6563,37.5381,-119.6563,7/3/1944,WAWONA,"SHARSMITH, CARL W.",correct
Arnica lanceolata,37.5416667,-119.4583333,37.5416667,-119.4583333,7/8/1985,Along the South Fork Merced River below Chiquito Pass.,J. R. Shevock; Steve Botti,correct
Epilobium brachycarpum,37.55,-119.64,37.55,-119.64,8/25/1974,Sierra Nevada; Yosemite National Park. Wawona.,T. R. Gordon,correct
Mentha spicata,37.55,-119.64,37.55,-119.64,8/24/1974,Sierra Nevada; Yosemite National Park. Wawona.,T. R. Gordon,correct
Clematis ligusticifolia,37.556887,-119.693776,37.556887,-119.693776,9/6/1946,"margin of S Fork Merced R near Wawona, Yosemite National Park",C.W. Sharsmith,correct
Lupinus bicolor,37.5573,-119.6768,37.5573,-119.6768,5/12/1967,ALDER CREEK TRAIL.,"HOOD, BILL",correct
Prunus subcordata,37.557407,-119.693207,37.557407,-119.693207,7/3/1944,"by S Fork Merced R, W of Wawona, Yosemite National Park",C.W. Sharsmith,correct
Gayophytum eriospermum,37.597462,-119.600262,37.597462,-119.600262,8/30/1959,"Turner Meadow, Yosemite National Park",C.W. Sharsmith,correct
Lomatium nevadense,37.59777,-119.42452,37.59777,-119.42452,7/7/1941,"near Givens Creek Moraine Meadows (Yosemite Nat'l Park); , Moraine Meadows",Herbert L. Mason,correct
Epilobium hornemannii,37.662,-119.663,37.662,-119.663,8/18/1962,Yosemite National Park; Badger Pass Ski Lodge,Donald Myrick,correct
Acmispon argophyllus,37.679869,-119.734941,37.679869,-119.734941,6/27/1944,"Merced R canyon below Arch Rock, Yosemite National Park",C.W. Sharsmith,correct
Acmispon micranthus,37.679869,-119.734941,37.679869,-119.734941,6/27/1944,"0.5 mi below Arch Rock, Merced R canyon, Yosemite National Park",C.W. Sharsmith,correct
Centaurea melitensis,37.679869,-119.734941,37.679869,-119.734941,6/27/1944,"0.5 mi below Arch Rock, Merced River canyon, Yosemite National Park",C.W. Sharsmith,correct
Elymus stebbinsii,37.679869,-119.734941,37.679869,-119.734941,6/24/1944,"0.5 mi below Arch Rock Entrance Station, Merced River Canyon, Yosemite National Park",C.W. Sharsmith,correct
Pentagramma pallida,37.686,-119.73,37.686,-119.73,8/6/1958,near Arch Rock; Yosemite Nat'l Park,R. J. Rodin,correct
Clematis lasiantha,37.68638,-119.73082,37.68638,-119.73082,6/26/1944,MERCED CANYON BELOW ARCH ROCK WITHIN PARK.,"SHARSMITH, CARL W.",correct
Lepechinia calycina,37.68638,-119.73082,37.68638,-119.73082,6/26/1944,"Merced R canyon below Arch Rock, Yosemite National Park",C.W. Sharsmith,correct
Phoradendron bolleanum,37.702236,-119.722238,37.702236,-119.722238,8/17/1969,1.7 mi N of Avalanche Crk in Yosemite Natl Park,"Wallace Weber; John C. Cooke, D.J. Pinkava, David J. Keil",correct
Arnica parryi,37.715,-119.6456,37.715,-119.6456,8/17/1938,Bridalveil Creek Canyon,R. F. Hoover,correct
Gayophytum ramosissimum,37.7161,-119.6926,37.7161,-119.6926,9/10/1939,WEST END. WAWONA TUNNEL,"COLE, JAMES E.",correct
Rubus glaucifolius,37.7165,-119.7059,37.7165,-119.7059,8/27/1946,on Wawona Road 1 mi s tunnel; Yosemite National Park,Robert J. Rodin,correct
Drymocallis hansenii,37.7175,-119.71778,37.7175,-119.71778,7/5/1936,"4 miles west of Bridal Veil Creek, Yosemite Valley",Lyman Benson,correct
Epilobium oreganum,37.71829,-119.65072,37.71829,-119.65072,6/28/1981,MEADOW ALONG LOWER BRIDALVEIL CREEK.,"BOTTI, STEPHEN J.",correct
Ceanothus arcuatus,37.721982,-119.77462,37.721982,-119.77462,10/24/1935,"3 mi. S Gin Flat, Yosemite; Sec. 33 T.2S R.20E","Thomas, Michael",correct
Mentzelia lindleyi,37.725815,-119.615047,37.725815,-119.615047,1930-08,Yosemite.,M. Homer,correct
Dichelostemma congestum,37.725956,-119.615043,37.725956,-119.615043,7/7/1924,Yosemite Valley.,P.A. Lehenbauer,correct
Calochortus luteus,37.7264,-119.6116,37.7264,-119.6116,1951-06,"Yosemite Valley, Sierra Nevada mountain range, Merced River drainage area",D. Taylor,correct
Cyperus esculentus,37.726438,-119.611642,37.726438,-119.611642,2/19/1920,Yosemite Valley.,W. L. Jepson,correct
Deinandra kelloggii,37.726438,-119.611642,37.726438,-119.611642,8/23/1927,YOSEMITE VALLEY,"MICHAEL, ENID",correct
Eragrostis cilianensis,37.726438,-119.611642,37.726438,-119.611642,10/25/1929,YOSEMITE VALLEY,"MICHAEL, ENID",correct
Erodium botrys,37.726438,-119.611642,37.726438,-119.611642,5/1/1925,YOSEMITE VALLEY,"MICHAEL, ENID",correct
Geranium carolinianum,37.726438,-119.611642,37.726438,-119.611642,8/5/1927,YOSEMITE VALLEY,"MICHAEL, ENID",correct
Helianthus annuus,37.726438,-119.611642,37.726438,-119.611642,8/17/1927,YOSEMITE VALLEY,"MICHAEL, ENID",correct
Juncus longistylis,37.726438,-119.611642,37.726438,-119.611642,1866-07-04,Yosemite Valley.,H. N. Bolander,correct
Ranunculus hebecarpus,37.726438,-119.611642,37.726438,-119.611642,6/1/1927,YOSEMITE VALLEY,"MICHAEL, ENID",correct
Taxus brevifolia,37.726438,-119.611642,37.726438,-119.611642,1874,Yosemite Valley.,J. G. Lemmon,correct
Tropidocarpum gracile,37.726438,-119.611642,37.726438,-119.611642,4/28/1928,YOSEMITE VALLEY,"MICHAEL, ENID",correct
Polypodium hesperium,37.728757,-119.546206,37.728757,-119.546206,7/24/1983,"Yosemite National Park, Vernal Falls, 0.1 mi up Mist Trail",G. Prlain,correct
Cardamine breweri,37.73,-119.557,37.73,-119.557,6/29/1944,"near Happy Isles swamp, Yosemite Valley",C.W. Sharsmith,correct
Eragrostis pilosa,37.73,-119.557,37.73,-119.557,8/13/1943,INTRODUCED. HAPPY ISLES. YOSEMITE VALLEY,"SHARSMITH, CARL W.",correct
Saxifraga mertensiana,37.733871,-119.573361,37.733871,-119.573361,6/23/1984,"WEST SIDE OF UPPER LEDGE TRAIL GULLY, ABOUT 1/2 WAY DOWN","BOTTI, STEVE",correct
Juncus uncialis,37.74,-119.409,37.74,-119.409,7/13/1911,Lake Merced Yosemite Park,Willis L. Jepson,correct
Veronica anagallis-aquatica,37.740037,-119.570956,37.740037,-119.570956,6/4/1940,"Stoneman Meadow, Yosemite Valley",C.W. Sharsmith,correct
Eragrostis virescens,37.741944,-119.594722,37.741944,-119.594722,9/28/1978,"Yosemite National Park. Mouth of Yosemite Creek at Merced River. USGS Quadrangle: Hetch Hetchy Reservoir 1:64,000","G. Douglas Barbe; Denis Griffen, K. A. Parker",correct
Juncus tenuis,37.74322,-119.58988,37.74322,-119.58988,6/28/1934,"near Merced River (near Sentinel Bridge); Sierra Nevada, Yosemite National Park, Yosemite Valley",Paul S. Bartholomew,correct
Monardella candicans,37.745,-119.59,37.745,-119.59,5/20/1932,Yosemite National Park; Yosemite,Mr. and Mrs. Driver,correct
Navarretia viscidula,37.745907,-119.594701,37.745907,-119.594701,7/1/1901,Yosemite,Geo. B. Grant,correct
Amsinckia menziesii,37.74653,-119.58229,37.74653,-119.58229,3/1/1932,Yosemite National Park,Edith A. Purer,correct
Erigeron annuus,37.746592,-119.580165,37.746592,-119.580165,4/22/1985,"Ahwahnee Meadow, Yosemite Valley, Yosemite National Park",C.W. Sharsmith,correct
Galium boreale,37.7466,-119.5802,37.7466,-119.5802,7/22/1984,"Awahnee Meadow Yosemite National Park, Yosemite Valley",C. W. Sharsmith,correct
Phacelia egena,37.74729,-119.5496,37.74729,-119.5496,6/25/1935,"slope near Mirror Lake; Yosemite National Park, Yosemite Valley",Beryl O. Schreiber,correct
Yabea microcarpa,37.753339,-119.598856,37.753339,-119.598856,7/1/1944,"base of upper Yosemite Fall, Yosemite Valley",C.W. Sharsmith,correct
Erythranthe inconspicua,37.766,-119.85,37.766,-119.85,8/6/1940,Head of Hazel Green Creek,R. F. Hoover,correct
Trichostema lanceolatum,37.76924,-119.80779,37.76924,-119.80779,8/24/1937,Tuolumne Big Oak,Robert F. Hoover,correct
Pseudoroegneria spicata,37.805365,-119.385142,37.805365,-119.385142,8/18/1974,"Echo Creek, Yosemite National Park.",Heidi Dobson,correct
Phacelia humilis,37.80917,-119.56667,37.80917,-119.56667,8/5/1977,Porcupine Flat Campground,George K. Helmkamp,correct
Arnica ovata,37.8092,-119.5651,37.8092,-119.5651,8/5/1977,Sierra Nevada Porcupine Flats Campground; meadow; ; Yosemite Falls 7.5'Q,George K. Helmkamp,correct
Stipa lettermanii,37.8205,-119.5783,37.8205,-119.5783,8/5/1977,"Sierra Nevada 2 miles east of Yosemite Creek, roadside; ; Yosemite Falls 7.5'Q",George K. Helmkamp,correct
Ribes inerme,37.83023,-119.27883,37.83023,-119.27883,7/22/1935,LYELL FORK OF TUOLUMNE RIVER,"ZENTMYER, GEORGE A.",correct
Epilobium oregonense,37.869,-119.648,37.869,-119.648,8/20/1962,Yosemite National Park; White Wolf,Donald Myrick,correct
Navarretia intertexta,37.870672,-119.708772,37.870672,-119.708772,6/9/1961,8 mi E of Mather,J.W. Tilden,correct
Orthocarpus cuspidatus,37.8753,-119.3764,37.8753,-119.3764,8/20/1961,"Tuolumne Meadows, Sierra Nevada Mts.",J. Bonquet,correct
Eriocoma nevadensis,37.875504,-119.347418,37.875504,-119.347418,7/29/1989,"S side Lembert Dome, Tuolumne Meadows, Yosemite National Park",C.W. Sharsmith,correct
Neomonolepis spathulata,37.878355,-119.367561,37.878355,-119.367561,8/9/1944,"Near Parsons Lodge, Tuolumne Meadows",J. T. Howell,correct
Argentina anserina,37.878806,-119.371157,37.878806,-119.371157,8/8/1989,"c. 0.25 mi W of Soda Springs, Tuolumne Meadows, Yosemite National Park",S.J. Botti,correct
Cuscuta occidentalis,37.8789,-119.3662,37.8789,-119.3662,7/23/1948,"by Soda Springs, Tuolumne Meadows, Yosemite National Park",C.W. Sharsmith,correct
Puccinellia nuttalliana,37.879,-119.364,37.879,-119.364,9/5/1949,"bordering Soda Springs, Tuolumne Meadows, Yosemite National Park",C.W. Sharsmith,correct
Potentilla amicarum,37.88867,-119.21551,37.88867,-119.21551,7/17/1937,near summit of saddle between Mount Dana and Mount Gibbs; Sierra Nevada,C. W. Sharsmith,correct
Tomostima reptans,37.88926,-119.21114,37.88926,-119.21114,7/30/1981,"Tuolumne County: Sierra Nevada. Yosemite National Park, crest of range between Mt. Dana and Peak 12568 (northeast of Mt. Gibbs).",Dean Wm. Taylor,correct
Limosella acaulis,37.89084,-119.25865,37.89084,-119.25865,8/16/1940,"Dana Meadows near Tioga Pass, Yosemite National Park",C.W. Sharsmith,correct
Phoradendron libocedri,37.89338,-119.84052,37.89338,-119.84052,9/19/1923,"Yosemite Nat'l Park, Mather Station Sierra Nevada Mts., Yosemite Nat'l Park, Mather Station",H. L. Mason,correct
Juncus bryoides,37.8954,-119.3949,37.8954,-119.3949,8/4/1980,"Glen Aulin Trail near mouth of Dingley Crk, Tuolumne Meadows; Yosemite National Park","Barbara Ertter, J. L. Strachan",correct
Eriogonum marifolium,37.9,-119.2333333,37.9,-119.2333333,6/25/1987,"S of Tioga Pass, Mt. Dana Trail.",Gary D. Wallace,correct
Delphinium polycladon,37.901,-119.242,37.901,-119.242,7/22/1961,Yosemite National Park; Mount Dana ridge above Tioga Pass,Donald Myrick,correct
Agoseris elata,37.9012,-119.2274,37.9012,-119.2274,8/18/1944,"W slope Mt Dana, Yosemite National Park",C.W. Sharsmith,correct
Draba longisquamosa,37.9012,-119.2274,37.9012,-119.2274,7/7/1989,"W slope Mt Dana, Yosemite National Park",R.B. Ewart,correct
Navarretia crystallina,37.92047,-119.86768,37.92047,-119.86768,6/10/1941,"East of North Mountain, North Mountain Ridge, Yosemite National Park.",Herbert L. Mason,correct
Quercus morehus,37.93348,-119.794495,37.93348,-119.794495,7/21/1948,6.1 mi ne Hog Ranch Ranger Station (on Hetch Hetchy road),"Verne Grant, Alva Grant",correct
Callitriche marginata,37.94927,-119.82782,37.94927,-119.82782,7/10/1938,SOUTH ISLAND. SWAMP LAKE RESEARCH RESERVE,"MASON., H.L.",correct
Alisma triviale,37.95067,-119.82831,37.95067,-119.82831,8/9/1958,"w of Hetch Hetchy Dam; Sierra Nevada, Yosemite National Park, Swamp Lake",Herbert L. Mason,correct
Carex alma,37.95067,-119.82831,37.95067,-119.82831,7/22/1937,W of Hetch Hetchy (Swamp Lake); Yosemite National Park,"L. W. Reinecke, Herbert L. Mason",correct
Polypogon viridis,37.95767,-119.563416,37.95767,-119.563416,7/24/1934,"Piute Creek Trail Sierra Nevada, Yosemite National Park, Piute Creek (Piute Creek is a tributary of the Tuolumne River)",Paul S. Bartholomew,correct
Glyceria striata,37.9599,-119.8388,37.9599,-119.8388,7/12/1939,"Tuolumne County: Yosemite National Park, northwest of Hetch-Hetchy. Miguel Meadows.",H. L. Mason,correct
Navarretia vividior,37.9599,-119.8388,37.9599,-119.8388,7/12/1941,"Tuolumne County: Yosemite National Park, Miguel Meadows.",Herbert L. Mason,correct
Medicago sativa,37.966,-119.6888,37.966,-119.6888,9/25/1935,"2 mi nne Le Conte Point; Yosemite National Park, Yosemite Quadrangle",E. Sawyer,correct
Pinus monophylla,37.967287,-119.700167,37.967287,-119.700167,10/22/1936,one mi up Tiltill Trail from Rainbow Falls; Yosemite National Park,A. Hawbecker,correct
Stellaria obtusa,37.99633,-119.77748,37.99633,-119.77748,7/22/1938,"n of Hetch Hetchy (Beehive); Sierra Nevada, Yosemite National Park, Beehive",Herbert L. Mason,correct
Agrostis oregonensis,38.00468,-119.75201,38.00468,-119.75201,7/28/1939,"Tuolumne County: Vernon Lake Trail, north and east of Hetch-Hetchy, Yosemite National Park.","Mason, Herbert L.",correct
Spergula arvensis,38.005967,-119.312177,38.005967,-119.312177,8/1/1939,SHEPHERD CREST.,"PRATT, H.K.",correct
Eleocharis bolanderi,38.006287,-119.74744,38.006287,-119.74744,7/25/1938,"ca. 4 mi N of Hetch Hetchy Lake (""Snow-pool marsh"", 1 mi S of Vernon Lake on trail to Beehive); Yosemite National Park",Herbert L. Mason,correct
Phacelia heterophylla,38.071403,-119.660967,38.071403,-119.660967,7/27/1937,EAST MAHAN RIDGE,BUSH,correct
Polystichum kruckebergii,38.07844,-119.351845,38.07844,-119.351845,8/6/1939,"head of Virginia Canyon (s. slope Twin Peaks); Sierra Nevada,Virginia Canyon",Edward Butts,correct
Polystichum scopulinum,38.07844,-119.351845,38.07844,-119.351845,8/7/1939,s slope of Twin Peak (head of Virginia Canyon); Sierra Nevada,Edward Butts,correct
Phlox speciosa,NA,NA,37.77094,-119.80768,1880-06-01,Buolumne Big Trees,"Cleveland, Daniel",correct
Antirrhinum leptaleum,37.545,-119.6514,37.545,-119.6514,7/18/1983,"Yosemite National Park, road to Wawona Ranger Station, across road from the parking area for Wawona Stable",D.M. Thompson,fairly close
Gayophytum racemosum,37.909444,-119.515833,37.909444,-119.515833,9/1/1961,Yosemite National Park.,C. Simis,leaving
